[{"OBJECT_NAME":"STARLINK-5906","OBJECT_ID":"2023-037BA","EPOCH":"2026-03-09T21:59:01.733856","MEAN_MOTION":14.98328179,"ECCENTRICITY":0.00026796,"INCLINATION":69.9984,"RA_OF_ASC_NODE":264.0177,"ARG_OF_PERICENTER":261.8106,"MEAN_ANOMALY":98.2749,"EPHEMERIS_TYPE":0,"CLASSIFICATION_TYPE":"U","NORAD_CAT_ID":55962,"ELEMENT_SET_NO":999,"REV_AT_EPOCH":16450,"BSTAR":-1.06104e-6,"MEAN_MOTION_DOT":-1.06e-6,"MEAN_MOTION_DDOT":0},{"OBJECT_NAME":"FENGYUN 1C DEB","OBJECT_ID":"1999-025BBV","EPOCH":"2026-03-07T05:09:56.553696","MEAN_MOTION":14.80587574,"ECCENTRICITY":0.0186084,"INCLINATION":97.8242,"RA_OF_ASC_NODE":327.5507,"ARG_OF_PERICENTER":327.1548,"MEAN_ANOMALY":189.2508,"EPHEMERIS_TYPE":0,"CLASSIFICATION_TYPE":"U","NORAD_CAT_ID":30979,"ELEMENT_SET_NO":999,"REV_AT_EPOCH":371,"BSTAR":0.0016537,"MEAN_MOTION_DOT":0.0001706,"MEAN_MOTION_DDOT":0}]
